{
    "links": {
        "self": "http://www.neowsapp.com/rest/v1/neo/3358116?api_key=iIulBulltgU6a56xZRHN4H3l9WmuAYTsLGpBGhQ2"
    },
    "id": "3358116",
    "neo_reference_id": "3358116",
    "name": "(2006 VC2)",
    "designation": "2006 VC2",
    "nasa_jpl_url": "http://ssd.jpl.nasa.gov/sbdb.cgi?sstr=3358116",
    "absolute_magnitude_h": 21.1,
    "estimated_diameter": {
        "kilometers": {
            "estimated_diameter_min": 0.160160338,
            "estimated_diameter_max": 0.358129403
        },
        "meters": {
            "estimated_diameter_min": 160.1603379786,
            "estimated_diameter_max": 358.1294030194
        },
        "miles": {
            "estimated_diameter_min": 0.0995189894,
            "estimated_diameter_max": 0.2225312253
        },
        "feet": {
            "estimated_diameter_min": 525.4604432536,
            "estimated_diameter_max": 1174.9652706022
        }
    },
    "is_potentially_hazardous_asteroid": false,
    "close_approach_data": [
        {
            "close_approach_date": "2003-11-14",
            "close_approach_date_full": "2003-Nov-14 11:42",
            "epoch_date_close_approach": 1068810120000,
            "relative_velocity": {
                "kilometers_per_second": "17.0264545189",
                "kilometers_per_hour": "61295.2362680263",
                "miles_per_hour": "38086.4761133189"
            },
            "miss_distance": {
                "astronomical": "0.3668151946",
                "lunar": "142.6911106994",
                "kilometers": "54874771.795795502",
                "miles": "34097602.0670898476"
            },
            "orbiting_body": "Earth"
        },
        {
            "close_approach_date": "2006-11-15",
            "close_approach_date_full": "2006-Nov-15 19:09",
            "epoch_date_close_approach": 1163617740000,
            "relative_velocity": {
                "kilometers_per_second": "14.9598067507",
                "kilometers_per_hour": "53855.3043025063",
                "miles_per_hour": "33463.5917206323"
            },
            "miss_distance": {
                "astronomical": "0.2680242839",
                "lunar": "104.2614464371",
                "kilometers": "40095861.979715293",
                "miles": "24914413.3374973234"
            },
            "orbiting_body": "Earth"
        },
        {
            "close_approach_date": "2009-11-14",
            "close_approach_date_full": "2009-Nov-14 00:58",
            "epoch_date_close_approach": 1258160280000,
            "relative_velocity": {
                "kilometers_per_second": "14.5798509575",
                "kilometers_per_hour": "52487.4634469255",
                "miles_per_hour": "32613.6686067854"
            },
            "miss_distance": {
                "astronomical": "0.4195157437",
                "lunar": "163.1916242993",
                "kilometers": "62758661.688985919",
                "miles": "38996424.0853229222"
            },
            "orbiting_body": "Earth"
        }
    ],
    "orbital_data": {
        "orbit_id": "9",
        "orbit_determination_date": "2017-04-06 09:07:41",
        "first_observation_date": "2006-11-09",
        "last_observation_date": "2006-12-01",
        "data_arc_in_days": 22,
        "observations_used": 37,
        "orbit_uncertainty": "8",
        "minimum_orbit_intersection": ".265944",
        "jupiter_tisserand_invariant": "3.496",
        "epoch_osculation": "2454052.5",
        "eccentricity": ".4223711030467768",
        "semi_major_axis": "2.101471172109099",
        "inclination": "27.75756898021135",
        "ascending_node_longitude": "226.2053357102836",
        "orbital_period": "1112.714076052646",
        "perihelion_distance": "1.213870475124376",
        "perihelion_argument": "211.7134467723236",
        "aphelion_distance": "2.989071869093822",
        "perihelion_time": "2454084.695990471108",
        "mean_anomaly": "349.5835266048612",
        "mean_motion": ".3235332487902914",
        "equinox": "J2000",
        "orbit_class": {
            "orbit_class_type": "AMO",
            "orbit_class_description": "Near-Earth asteroid orbits similar to that of 1221 Amor",
            "orbit_class_range": "1.017 AU < q (perihelion) < 1.3 AU"
        }
    },
    "is_sentry_object": false
}